{
"type": "FeatureCollection",
"name": "golf_courses_washington",
"crs": { "type": "name", "properties": { "name": "urn:ogc:def:crs:EPSG::3347" } },
"features": [
{ "type": "Feature", "properties": { "element": "relation", "id": 2999482, "access": null, "disused": null, "leisure": "golf_course", "name": "Langston Golf Course", "note": null, "addr:city": "Washington", "addr:housenumber": "2600", "addr:postcode": "20002", "addr:state": "DC", "addr:street": "Benning Road", "opening_hours:signed": null, "phone": null, "website": "https://www.playdcgolf.com/langston-golf-course/", "wikidata": "Q6486507", "gnis:feature_id": null, "opening_hours": null, "operator": null, "operator:short": null, "operator:type": null, "start_date": null, "type": "multipolygon", "dcgis:acquired": "6, 9", "dcgis:alpha_code": "NACE", "dcgis:location": "Anacostia River (both Banks) Between DC Line & Benning Rd.", "dcgis:name": "Anacostia Park, Section G", "dcgis:park_code": "831", "dcgis:reserve": "343G", "dcgis:source": "NPS", "dcgis:trans_dc": "0000/00/00", "wikipedia": "en:Langston Golf Course", "area_m2": 719783.34094709205, "lat": 38.902939110527718, "lon": -76.965245328575506, "province": "Washington", "gcid": "WA00002" }, "geometry": { "type": "MultiPolygon", "coordinates": [ [ [ [ 7547147.149924211204052, 438397.848398389760405 ], [ 7547149.746739558875561, 438407.326659818179905 ], [ 7547150.063412198796868, 438417.437086172867566 ], [ 7547145.649105454795063, 438431.964004487730563 ], [ 7547142.718093823641539, 438449.197571475058794 ], [ 7547142.359112311154604, 438464.104125348851085 ], [ 7547142.648235443979502, 438481.758072989992797 ], [ 7547139.502715420909226, 438491.990455424878746 ], [ 7547133.413947228342295, 438500.092007276136428 ], [ 7547127.704197028651834, 438511.596936697605997 ], [ 7547123.990712360478938, 438523.698312092572451 ], [ 7547120.232271170243621, 438543.927208340726793 ], [ 7547116.07471220754087, 438559.343527169432491 ], [ 7547110.000681261532009, 438570.881513611413538 ], [ 7547103.04972152877599, 438581.141917063388973 ], [ 7547093.697038563899696, 438610.898630646057427 ], [ 7547088.276440494693816, 438642.061828569043428 ], [ 7547083.657057227566838, 438653.478792365640402 ], [ 7547079.067495867609978, 438664.770830434281379 ], [ 7547077.24464213103056, 438673.902384432498366 ], [ 7547078.041743321344256, 438682.470875835511833 ], [ 7547079.444403361529112, 438687.991024337243289 ], [ 7547090.807048157788813, 438705.93489010585472 ], [ 7547101.512533272616565, 438727.142868393566459 ], [ 7547107.518240505829453, 438745.680794914718717 ], [ 7547111.320610312744975, 438762.996682222932577 ], [ 7547118.200277846306562, 438786.832558684516698 ], [ 7547131.95165778324008, 438806.162854905705899 ], [ 7547143.810865542851388, 438825.521715024486184 ], [ 7547157.856087108142674, 438838.668553047347814 ], [ 7547175.591901243664324, 438854.23271121038124 ], [ 7547189.326293884776533, 438862.708228548057377 ], [ 7547210.39168050326407, 438873.281676867045462 ], [ 7547227.56210820004344, 438878.796419054269791 ], [ 7547236.859691748395562, 438885.50486775720492 ], [ 7547253.699578326195478, 438903.328149160835892 ], [ 7547266.774385743774474, 438919.556591460015625 ], [ 7547273.656717856414616, 438933.946833024267107 ], [ 7547276.005239614285529, 438946.426637561991811 ], [ 7547280.004939408041537, 438958.472355420235544 ], [ 7547281.527333191595972, 438968.990484488662332 ], [ 7547281.941342869773507, 438985.605743303429335 ], [ 7547282.203931155614555, 438996.41130209993571 ], [ 7547278.969965449534357, 439004.497712885495275 ], [ 7547277.954395576380193, 439017.71088449889794 ], [ 7547283.737283127382398, 439034.191309150774032 ], [ 7547287.420920413918793, 439057.972705786582083 ], [ 7547292.77899943292141, 439068.806256726849824 ], [ 7547293.643458928912878, 439086.009115790948272 ], [ 7547291.843476733192801, 439104.472436663229018 ], [ 7547286.887368004769087, 439124.763020820915699 ], [ 7547285.673936622217298, 439147.723462208174169 ], [ 7547287.416453080251813, 439163.251373287290335 ], [ 7547292.587485855445266, 439172.863950476516038 ], [ 7547299.113206680864096, 439190.709981435909867 ], [ 7547305.920461038127542, 439211.816057039890438 ], [ 7547311.257085514254868, 439230.67457772558555 ], [ 7547316.179615898057818, 439242.820530282799155 ], [ 7547327.247409582138062, 439259.986418329644948 ], [ 7547342.950126697309315, 439278.12677566241473 ], [ 7547357.87780605442822, 439295.506015945225954 ], [ 7547376.543277718126774, 439319.071018685586751 ], [ 7547390.308345694094896, 439334.876479938626289 ], [ 7547400.552455559372902, 439350.069451731164008 ], [ 7547407.141564534977078, 439366.154305212199688 ], [ 7547411.955771027132869, 439381.22726873587817 ], [ 7547415.888315836898983, 439397.51811251975596 ], [ 7547417.098560379818082, 439417.276081013958901 ], [ 7547417.98565855063498, 439446.283283891621977 ], [ 7547417.680517058819532, 439480.323170482181013 ], [ 7547420.925166437402368, 439514.382310694549233 ], [ 7547425.753569208085537, 439537.368640816304833 ], [ 7547429.272260095924139, 439551.424085929058492 ], [ 7547433.447806575335562, 439559.742866284679621 ], [ 7547444.331817119382322, 439572.72411027085036 ], [ 7547470.151993849314749, 439601.550661616958678 ], [ 7547486.286840772256255, 439621.331121758557856 ], [ 7547495.698135605081916, 439628.067366882693022 ], [ 7547503.888296047225595, 439630.491040401160717 ], [ 7547511.784767505712807, 439629.195674229413271 ], [ 7547519.064166334457695, 439625.496402202639729 ], [ 7547527.308017954230309, 439620.74309292063117 ], [ 7547533.395449083298445, 439620.072068837471306 ], [ 7547536.403502378612757, 439621.37846625270322 ], [ 7547542.277039512060583, 439619.60010765818879 ], [ 7547544.22397322114557, 439615.923926471266896 ], [ 7547545.008604412898421, 439611.538103492930532 ], [ 7547550.377501141279936, 439606.374412292148918 ], [ 7547554.6015355726704, 439602.509759923908859 ], [ 7547552.41748333722353, 439565.858924719505012 ], [ 7547549.055755031295121, 439536.260755755007267 ], [ 7547543.974916830658913, 439502.471102485433221 ], [ 7547531.601639339700341, 439411.353603046853095 ], [ 7547529.867672108113766, 439396.775848460849375 ], [ 7547522.468651429750025, 439343.899671888444573 ], [ 7547512.396281964145601, 439290.277124159503728 ], [ 7547503.005808490328491, 439242.242801235057414 ], [ 7547486.677595544606447, 439193.488325159996748 ], [ 7547464.304813062772155, 439115.443215067498386 ], [ 7547446.273939684964716, 439059.908572964835912 ], [ 7547427.15850140247494, 439004.475146763026714 ], [ 7547413.053945779800415, 438957.319943247828633 ], [ 7547400.400339871644974, 438921.962296695448458 ], [ 7547383.84630618058145, 438876.10691879875958 ], [ 7547372.524157788604498, 438844.128013986162841 ], [ 7547357.715220795944333, 438803.886724209878594 ], [ 7547346.021041285246611, 438764.977139847818762 ], [ 7547341.749381789937615, 438746.132477280218154 ], [ 7547338.949590128846467, 438728.587416506838053 ], [ 7547339.12609063833952, 438701.009762967005372 ], [ 7547340.766119667328894, 438671.308721721172333 ], [ 7547346.934076018631458, 438641.500116153620183 ], [ 7547358.546034751459956, 438596.822303231805563 ], [ 7547379.061847380362451, 438545.651235609315336 ], [ 7547399.04512629378587, 438501.663053121417761 ], [ 7547421.619316624477506, 438449.218541677109897 ], [ 7547424.127652680501342, 438443.347373649012297 ], [ 7547403.191618282347918, 438440.162410686258227 ], [ 7547372.119642303325236, 438437.51098186057061 ], [ 7547331.434986110776663, 438434.06571611110121 ], [ 7547304.266366446390748, 438429.837608278729022 ], [ 7547272.263273363001645, 438423.699531693477184 ], [ 7547241.312034089118242, 438415.315969751682132 ], [ 7547208.842272942885756, 438404.805663597304374 ], [ 7547177.612765110097826, 438393.343202864285558 ], [ 7547141.952835584059358, 438381.303738052491099 ], [ 7547147.149924211204052, 438397.848398389760405 ] ] ], [ [ [ 7547168.233867379836738, 439799.908125462476164 ], [ 7547193.796431509777904, 439793.983631639741361 ], [ 7547227.1236477997154, 439792.421442133840173 ], [ 7547255.985939350910485, 439800.05591373052448 ], [ 7547291.181337949819863, 439801.19661236461252 ], [ 7547322.301672393456101, 439798.351901569403708 ], [ 7547360.895881258882582, 439791.542352705728263 ], [ 7547413.267727243714035, 439779.740539574529976 ], [ 7547457.712030279450119, 439769.563132039271295 ], [ 7547496.278831345960498, 439764.992344474885613 ], [ 7547540.076284620910883, 439755.405192450620234 ], [ 7547564.763487134128809, 439745.76817337423563 ], [ 7547571.354090228676796, 439744.953312137164176 ], [ 7547573.365431241691113, 439739.672135034110397 ], [ 7547572.943472514860332, 439728.792645428795367 ], [ 7547568.598800096660852, 439706.965922710485756 ], [ 7547562.178356599062681, 439685.387726055923849 ], [ 7547553.770453717559576, 439668.244219106156379 ], [ 7547544.665531526319683, 439671.615565128624439 ], [ 7547539.31167876906693, 439677.659042991697788 ], [ 7547528.809872715733945, 439687.430564305745065 ], [ 7547508.6014021364972, 439700.069694260600954 ], [ 7547496.337450400926173, 439702.80682451557368 ], [ 7547481.829197335988283, 439707.480723846703768 ], [ 7547468.748220826499164, 439712.147349422331899 ], [ 7547446.263450095430017, 439713.032329898327589 ], [ 7547429.039930067956448, 439710.696459636092186 ], [ 7547403.763162674382329, 439704.421387092210352 ], [ 7547367.040342982858419, 439692.941095433197916 ], [ 7547343.545649962499738, 439684.151062653865665 ], [ 7547325.661561249755323, 439672.679634558968246 ], [ 7547299.553986179642379, 439654.99600867042318 ], [ 7547274.458937868475914, 439634.013393692672253 ], [ 7547250.327887854538858, 439613.981222838629037 ], [ 7547233.909461202099919, 439593.893878161441535 ], [ 7547209.882258933037519, 439560.539498728234321 ], [ 7547194.911545757204294, 439542.322261448949575 ], [ 7547187.52189367916435, 439529.119513475336134 ], [ 7547184.00398569367826, 439518.005274508614093 ], [ 7547182.250720258802176, 439499.066270981449634 ], [ 7547178.297583638690412, 439483.371051316149533 ], [ 7547172.50134408287704, 439467.932043968234211 ], [ 7547170.959224425256252, 439456.005120272282511 ], [ 7547167.993268699385226, 439438.649078004062176 ], [ 7547156.828649995848536, 439413.442569442093372 ], [ 7547147.719641200266778, 439392.039563118480146 ], [ 7547140.262290903367102, 439378.56866250699386 ], [ 7547136.741109326481819, 439371.474644124507904 ], [ 7547131.186801463365555, 439369.440695991273969 ], [ 7547128.756358608603477, 439364.731556370854378 ], [ 7547130.070545802824199, 439360.208055936731398 ], [ 7547130.667129117995501, 439353.268716837279499 ], [ 7547126.02125097066164, 439341.417146983556449 ], [ 7547124.106801173649728, 439330.577632239554077 ], [ 7547125.742140334099531, 439321.761701758950949 ], [ 7547130.449897279962897, 439297.99123826995492 ], [ 7547133.149941180832684, 439266.875815202482045 ], [ 7547133.589813486672938, 439244.679239177145064 ], [ 7547130.613770022988319, 439226.852610182017088 ], [ 7547127.830114178359509, 439215.685556385666132 ], [ 7547123.964618425816298, 439200.131246166769415 ], [ 7547118.040421760641038, 439190.68722014175728 ], [ 7547105.958327705040574, 439175.764423954300582 ], [ 7547091.301626289263368, 439163.179904423654079 ], [ 7547074.303066352382302, 439150.504611302167177 ], [ 7547060.43605805747211, 439136.10416914941743 ], [ 7547049.559911284595728, 439123.593886760529131 ], [ 7547037.43212073482573, 439105.599608749616891 ], [ 7547032.460464572533965, 439097.979439856018871 ], [ 7547017.200967965647578, 439073.968474254477769 ], [ 7547009.1069420222193, 439046.302300716284662 ], [ 7547003.16809553746134, 439014.085195868741721 ], [ 7546998.62836136482656, 438998.83819021936506 ], [ 7546997.682508236728609, 438980.439857156481594 ], [ 7546999.480690920725465, 438961.508079030551016 ], [ 7547005.157849097624421, 438933.239384236745536 ], [ 7547008.508598564192653, 438906.780053918715566 ], [ 7547006.829161762259901, 438881.904952125623822 ], [ 7547005.972481491975486, 438864.272003611084074 ], [ 7547005.660731311887503, 438830.324820942711085 ], [ 7547003.600468947552145, 438804.686596698127687 ], [ 7547001.695717491209507, 438794.785570077598095 ], [ 7546999.664341909810901, 438783.449956691358238 ], [ 7546995.973812439478934, 438774.311073802877218 ], [ 7546995.266676788218319, 438766.112217948772013 ], [ 7546994.75835850276053, 438746.389768550638109 ], [ 7546994.185357737354934, 438723.951157018076628 ], [ 7546998.998876940459013, 438704.802498524542898 ], [ 7547002.848014583811164, 438680.694422238972038 ], [ 7547005.719538317993283, 438660.722183500882238 ], [ 7547007.719939227215946, 438644.911208691075444 ], [ 7547012.640745177865028, 438628.260734271258116 ], [ 7547024.006675849668682, 438598.516366029623896 ], [ 7547034.016808633692563, 438567.968268647789955 ], [ 7547041.629507613368332, 438551.672041876241565 ], [ 7547048.534367707557976, 438528.004906690213829 ], [ 7547057.390446355566382, 438501.310421182308346 ], [ 7547063.446158941835165, 438485.878912383224815 ], [ 7547068.987002732232213, 438477.046385411638767 ], [ 7547069.128678041510284, 438474.48747616680339 ], [ 7547067.949335901066661, 438471.961411070078611 ], [ 7547067.177261278033257, 438467.768048061057925 ], [ 7547070.436101153492928, 438464.056501210667193 ], [ 7547074.384918469935656, 438462.406140891369432 ], [ 7547075.024522678926587, 438457.721432408783585 ], [ 7547073.438227182254195, 438453.441786649171263 ], [ 7547078.110993735492229, 438439.324664471205324 ], [ 7547081.815010970458388, 438421.327322816476226 ], [ 7547083.292001071386039, 438408.692153978627175 ], [ 7547084.570402644574642, 438398.854385666083544 ], [ 7547090.350605396553874, 438393.499898406211287 ], [ 7547095.133837061002851, 438391.340459077619016 ], [ 7547103.567072430625558, 438390.748277175240219 ], [ 7547116.638362612575293, 438392.103207429405302 ], [ 7547122.202563283033669, 438392.134731496684253 ], [ 7547125.789019131101668, 438390.037801223807037 ], [ 7547132.898004096932709, 438376.718096559867263 ], [ 7547047.625869369134307, 438367.867742003872991 ], [ 7546943.89331465959549, 438356.270126692485064 ], [ 7546924.294473007321358, 438351.845625626854599 ], [ 7546827.92980277352035, 438340.387771104462445 ], [ 7546815.016459999606013, 438338.843138856813312 ], [ 7546762.38722400739789, 438335.732961031142622 ], [ 7546716.62094555888325, 438334.680695023387671 ], [ 7546716.699309162795544, 438338.480391397606581 ], [ 7546717.243542482145131, 438364.585092367138714 ], [ 7546713.080703848972917, 438402.674202404916286 ], [ 7546672.158815733157098, 438573.569661929272115 ], [ 7546729.773728853091598, 438588.323852667119354 ], [ 7546773.746182437054813, 438639.14568895380944 ], [ 7546740.723277262412012, 438780.81215207837522 ], [ 7546686.724619464017451, 438813.05949105322361 ], [ 7546658.207544693723321, 438942.056300406809896 ], [ 7546591.341045617125928, 438927.099233827553689 ], [ 7546582.474724562838674, 438960.056124636437744 ], [ 7546572.023653067648411, 438970.093649732880294 ], [ 7546556.343986335210502, 438968.357335886918008 ], [ 7546548.230118492618203, 438957.119437139946967 ], [ 7546464.213903207331896, 438935.503843130543828 ], [ 7546446.083704854361713, 438937.828315609600395 ], [ 7546432.017669457010925, 438946.115471675526351 ], [ 7546403.406451556831598, 438980.975645267404616 ], [ 7546357.835316183045506, 439037.475769076030701 ], [ 7546436.736168318428099, 439106.276497513987124 ], [ 7546555.596467868424952, 439211.282031198963523 ], [ 7546552.342052414081991, 439227.045237888582051 ], [ 7546655.314483772031963, 439255.118584053125232 ], [ 7546661.284753631800413, 439268.065706096589565 ], [ 7546698.41016233805567, 439276.924141090828925 ], [ 7546709.442555760964751, 439266.53365590563044 ], [ 7546835.44586749561131, 439295.088870364241302 ], [ 7547000.861587214283645, 439335.573975570034236 ], [ 7547021.226346492767334, 439372.494120222516358 ], [ 7547036.417924621142447, 439413.208832767326385 ], [ 7547045.145828935317695, 439473.733880979940295 ], [ 7547054.413911601528525, 439536.080180495977402 ], [ 7547057.288390120491385, 439578.848114729858935 ], [ 7547055.246685097925365, 439608.343746559694409 ], [ 7547058.6869862601161, 439639.231860591564327 ], [ 7547064.997034186497331, 439666.54395993007347 ], [ 7547069.638198960572481, 439705.640485851094127 ], [ 7547066.938450923189521, 439748.577983458526433 ], [ 7547084.656485085375607, 439775.94850846612826 ], [ 7547103.599532438442111, 439797.754196945112199 ], [ 7547129.611076733097434, 439804.7195367179811 ], [ 7547168.233867379836738, 439799.908125462476164 ] ] ] ] } },
{ "type": "Feature", "properties": { "element": "way", "id": 1126813986, "access": null, "disused": null, "leisure": "golf_course", "name": "East Potomac Blue Course", "note": null, "addr:city": "Washington", "addr:housenumber": "972", "addr:postcode": "20024", "addr:state": "DC", "addr:street": "Ohio Drive Southwest", "opening_hours:signed": "no", "phone": "+1 202-554-7660", "website": "https://playdcgolf.com/east-potomac-golf-links/", "wikidata": "Q5329186", "gnis:feature_id": null, "opening_hours": null, "operator": null, "operator:short": null, "operator:type": null, "start_date": null, "type": null, "dcgis:acquired": null, "dcgis:alpha_code": null, "dcgis:location": null, "dcgis:name": null, "dcgis:park_code": null, "dcgis:reserve": null, "dcgis:source": null, "dcgis:trans_dc": null, "wikipedia": null, "area_m2": 537266.64592866914, "lat": 38.8678080805023, "lon": -77.025671422177538, "province": "Washington", "gcid": "WA00006" }, "geometry": { "type": "Polygon", "coordinates": [ [ [ 7542871.370633829385042, 433882.463116823229939 ], [ 7542790.002253588289022, 433863.650061264634132 ], [ 7542766.731971515342593, 433884.057155536487699 ], [ 7542727.490179880522192, 433944.934493451844901 ], [ 7542629.750006409361959, 434024.81959272781387 ], [ 7542598.917140866629779, 434039.624591018538922 ], [ 7542578.138479085639119, 434054.922763060312718 ], [ 7542558.510146462358534, 434102.769428110215813 ], [ 7542542.823291223496199, 434142.046643394045532 ], [ 7542534.06134940776974, 434160.200654062442482 ], [ 7542496.217811495065689, 434177.780606091953814 ], [ 7542472.544126590713859, 434189.234150932170451 ], [ 7542466.143343768082559, 434240.212011840660125 ], [ 7542452.104524184949696, 434291.270951020997018 ], [ 7542440.497280194424093, 434324.675899939611554 ], [ 7542431.399414758197963, 434358.221044548321515 ], [ 7542422.046949392184615, 434391.021484205499291 ], [ 7542414.602698527276516, 434430.360554333776236 ], [ 7542395.568417961709201, 434441.128127435687929 ], [ 7542389.398175737820566, 434442.614378309808671 ], [ 7542381.897683332674205, 434440.459857201669365 ], [ 7542374.626815048977733, 434436.391529740765691 ], [ 7542368.204375403001904, 434431.516637163702399 ], [ 7542360.205902193672955, 434423.758735809475183 ], [ 7542340.936446323059499, 434416.131004302762449 ], [ 7542342.796994830481708, 434411.46013876888901 ], [ 7542333.598219691775739, 434407.173783753998578 ], [ 7542331.127964490093291, 434413.06803072290495 ], [ 7542316.101258989423513, 434419.843210410326719 ], [ 7542312.989431006833911, 434420.303976831492037 ], [ 7542309.493724564090371, 434418.9451898727566 ], [ 7542307.215162568725646, 434415.307138179428875 ], [ 7542308.396320810541511, 434388.186504970770329 ], [ 7542303.169849647209048, 434377.330682097002864 ], [ 7542285.339110338129103, 434360.923288191203028 ], [ 7542242.288176625035703, 434327.025003294926137 ], [ 7542237.502190548926592, 434315.301740913651884 ], [ 7542159.278273795731366, 434147.406460629310459 ], [ 7542073.088660665787756, 434144.608618766535074 ], [ 7542054.138130698353052, 434121.574905610643327 ], [ 7542041.84844505507499, 434107.19303814554587 ], [ 7542085.872951982542872, 434057.820426256395876 ], [ 7542120.217673533596098, 434022.891433106735349 ], [ 7542161.878284846432507, 433982.091062635183334 ], [ 7542231.257790895178914, 433906.335890737362206 ], [ 7542332.762730859220028, 433798.137197639327496 ], [ 7542395.946707243099809, 433719.565635859500617 ], [ 7542456.84386283531785, 433640.198513194918633 ], [ 7542523.861812169663608, 433557.232536864466965 ], [ 7542580.060223885811865, 433493.108546919655055 ], [ 7542647.712606712244451, 433405.708028926048428 ], [ 7542672.892161625437438, 433369.21318622585386 ], [ 7542653.199470445513725, 433356.755287662614137 ], [ 7542682.381942642852664, 433316.566421734634787 ], [ 7542874.668428910896182, 433052.918898947071284 ], [ 7542904.080033147707582, 433011.775870800483972 ], [ 7542980.777661259286106, 433050.687437772285193 ], [ 7543047.756321787834167, 433078.131364647764713 ], [ 7543068.570248653180897, 433090.100963407196105 ], [ 7543075.771092160604894, 433114.88324778014794 ], [ 7543037.817476245574653, 433352.674081875942647 ], [ 7542945.967174993827939, 433622.373644164763391 ], [ 7542871.370633829385042, 433882.463116823229939 ] ] ] } },
{ "type": "Feature", "properties": { "element": "way", "id": 986689201, "access": null, "disused": null, "leisure": "golf_course", "name": "Rock Creek Park Public Golf Course", "note": null, "addr:city": "Washington", "addr:housenumber": null, "addr:postcode": null, "addr:state": "DC", "addr:street": "Joyce Road Northwest", "opening_hours:signed": null, "phone": "+1 202-882-7332", "website": "https://playdcgolf.com/rock-creek-park-golf/", "wikidata": "Q7354375", "gnis:feature_id": "528952", "opening_hours": "Mo-Su 06:30-sunset", "operator": "National Park Service", "operator:short": "NPS", "operator:type": "public", "start_date": "1909-07-01", "type": null, "dcgis:acquired": null, "dcgis:alpha_code": null, "dcgis:location": null, "dcgis:name": null, "dcgis:park_code": null, "dcgis:reserve": null, "dcgis:source": null, "dcgis:trans_dc": null, "wikipedia": null, "area_m2": 505584.9688515006, "lat": 38.966374955802429, "lon": -77.041341674819492, "province": "Washington", "gcid": "WA00004" }, "geometry": { "type": "Polygon", "coordinates": [ [ [ 7538602.460835333913565, 444222.323293210472912 ], [ 7538667.272567643783987, 444220.207797035574913 ], [ 7538793.846553262323141, 444283.772805404383689 ], [ 7538835.158872631378472, 444325.609240783378482 ], [ 7538892.430838433094323, 444382.739180666394532 ], [ 7538922.173126496374607, 444437.327327895909548 ], [ 7538946.39300147164613, 444468.592718647327274 ], [ 7538978.550909779965878, 444489.735801067668945 ], [ 7538985.088485971093178, 444519.30958524858579 ], [ 7538989.104616597294807, 444582.807396497577429 ], [ 7539007.566526295617223, 444608.699330566450953 ], [ 7538994.665610760450363, 444656.676081930752844 ], [ 7538971.912044489756227, 444665.775153711438179 ], [ 7538927.918632550165057, 444719.875033878721297 ], [ 7538869.005171334370971, 444783.926640844438225 ], [ 7538804.166938269510865, 444913.120525398291647 ], [ 7538781.3093570927158, 444941.711174522060901 ], [ 7538706.522693020291626, 444987.995376190636307 ], [ 7538590.81294104270637, 445031.06532012950629 ], [ 7538534.767820558510721, 445032.261375459376723 ], [ 7538424.761889783665538, 445002.643775258213282 ], [ 7538319.217361707240343, 444960.581309291068465 ], [ 7538257.857509916648269, 444907.993424377869815 ], [ 7538236.823884295299649, 444848.472709785215557 ], [ 7538251.004513615742326, 444716.764431799761951 ], [ 7538265.555190278217196, 444659.679676660802215 ], [ 7538276.437141879461706, 444611.739776698872447 ], [ 7538209.443132352083921, 444563.813123997300863 ], [ 7538156.283036112785339, 444531.693174871616066 ], [ 7538140.790157582610846, 444497.501378446817398 ], [ 7538141.613060691393912, 444487.680904886685312 ], [ 7538150.492459169588983, 444450.26479948265478 ], [ 7538191.071377843618393, 444416.868942153640091 ], [ 7538248.019030363298953, 444356.842532652895898 ], [ 7538259.030387161299586, 444282.903263476211578 ], [ 7538292.292725459672511, 444242.265147313009948 ], [ 7538365.992698801681399, 444213.227644337341189 ], [ 7538510.857512399554253, 444187.072083070408553 ], [ 7538602.460835333913565, 444222.323293210472912 ] ] ] } },
{ "type": "Feature", "properties": { "element": "way", "id": 51854279, "access": null, "disused": null, "leisure": "golf_course", "name": "East Potomac White Course", "note": null, "addr:city": "Washington", "addr:housenumber": "972", "addr:postcode": "20024", "addr:state": "DC", "addr:street": "Ohio Drive Southwest", "opening_hours:signed": "no", "phone": "+1 202-554-7660", "website": "https://playdcgolf.com/east-potomac-golf-links/", "wikidata": "Q5329186", "gnis:feature_id": null, "opening_hours": null, "operator": null, "operator:short": null, "operator:type": null, "start_date": null, "type": null, "dcgis:acquired": null, "dcgis:alpha_code": null, "dcgis:location": null, "dcgis:name": null, "dcgis:park_code": null, "dcgis:reserve": null, "dcgis:source": null, "dcgis:trans_dc": null, "wikipedia": null, "area_m2": 201418.74739819753, "lat": 38.875518899600991, "lon": -77.030276111625099, "province": "Washington", "gcid": "WA00003" }, "geometry": { "type": "Polygon", "coordinates": [ [ [ 7542101.497302243486047, 434218.306757191196084 ], [ 7542082.660762600600719, 434213.711498657241464 ], [ 7542065.144998291507363, 434216.115355604328215 ], [ 7542033.602302772924304, 434238.543189185205847 ], [ 7542044.069985320791602, 434260.197610869538039 ], [ 7542021.792740467935801, 434287.107051518280059 ], [ 7542001.383445003069937, 434313.500078807584941 ], [ 7541994.774595502763987, 434321.927823773119599 ], [ 7541979.334850765764713, 434355.166450603399426 ], [ 7542072.663857266306877, 434422.911587229464203 ], [ 7542102.828204090707004, 434486.404551472514868 ], [ 7542111.669088926166296, 434505.464168027043343 ], [ 7542157.447282093577087, 434496.921654624864459 ], [ 7542159.81780600361526, 434500.725496736820787 ], [ 7542165.936912285163999, 434503.283642079215497 ], [ 7542172.357685923576355, 434503.58504842966795 ], [ 7542177.287832557223737, 434505.500634027179331 ], [ 7542182.497289996594191, 434524.561713418457657 ], [ 7542190.093159562908113, 434536.856500979978591 ], [ 7542223.194879371672869, 434545.298125930596143 ], [ 7542234.37807981017977, 434561.565989950671792 ], [ 7542246.03795038536191, 434581.907878365367651 ], [ 7542276.014708654955029, 434619.804864060599357 ], [ 7542286.871146503835917, 434627.773705190978944 ], [ 7542281.493521947413683, 434647.955726868472993 ], [ 7542274.653576656244695, 434650.603103693109006 ], [ 7542268.371443778276443, 434680.039870195090771 ], [ 7542156.161991368047893, 434756.174207172822207 ], [ 7541996.958716699853539, 434856.969720446970314 ], [ 7541976.541715430095792, 434866.617124119773507 ], [ 7541924.434676615521312, 434773.596579812467098 ], [ 7541877.372482772916555, 434690.60852533346042 ], [ 7541844.487961379811168, 434631.656258919741958 ], [ 7541812.8007687991485, 434575.401044396683574 ], [ 7541767.435826108790934, 434496.981992305256426 ], [ 7541710.151906387880445, 434418.336773270741105 ], [ 7541736.512614300474524, 434370.277190817520022 ], [ 7541777.926133899949491, 434340.015405665617436 ], [ 7541838.56090678088367, 434290.255379532463849 ], [ 7541905.317887717857957, 434235.936801117379218 ], [ 7541931.306069722399116, 434234.597009694669396 ], [ 7541958.775682916864753, 434237.605983403045684 ], [ 7541967.896858594380319, 434226.738432301208377 ], [ 7541985.830394865944982, 434201.485325544606894 ], [ 7542054.138130698353052, 434121.574905610643327 ], [ 7542073.088660665787756, 434144.608618766535074 ], [ 7542159.278273795731366, 434147.406460629310459 ], [ 7542237.502190548926592, 434315.301740913651884 ], [ 7542242.288176625035703, 434327.025003294926137 ], [ 7542168.482233902439475, 434270.456733174156398 ], [ 7542146.038270371034741, 434240.963503900915384 ], [ 7542132.665483929216862, 434230.944926518946886 ], [ 7542119.033948969095945, 434224.621631281450391 ], [ 7542112.963612835854292, 434223.515460935421288 ], [ 7542101.497302243486047, 434218.306757191196084 ] ] ] } },
{ "type": "Feature", "properties": { "element": "way", "id": 1126813985, "access": null, "disused": null, "leisure": "golf_course", "name": "East Potomac Red Course", "note": null, "addr:city": "Washington", "addr:housenumber": "972", "addr:postcode": "20024", "addr:state": "DC", "addr:street": "Ohio Drive Southwest", "opening_hours:signed": "no", "phone": "+1 202-554-7660", "website": "https://playdcgolf.com/east-potomac-golf-links/", "wikidata": "Q5329186", "gnis:feature_id": null, "opening_hours": null, "operator": null, "operator:short": null, "operator:type": null, "start_date": null, "type": null, "dcgis:acquired": null, "dcgis:alpha_code": null, "dcgis:location": null, "dcgis:name": null, "dcgis:park_code": null, "dcgis:reserve": null, "dcgis:source": null, "dcgis:trans_dc": null, "wikipedia": null, "area_m2": 78075.67262685574, "lat": 38.870973728006454, "lon": -77.024386261796238, "province": "Washington", "gcid": "WA00005" }, "geometry": { "type": "Polygon", "coordinates": [ [ [ 7542700.363520564511418, 434220.719031949993223 ], [ 7542625.774199219420552, 434190.855724355671555 ], [ 7542580.138484388589859, 434258.866363201290369 ], [ 7542463.928377421572804, 434407.768075721804053 ], [ 7542457.828137292526662, 434408.406737398356199 ], [ 7542425.702505428344011, 434443.860576806589961 ], [ 7542414.602698527276516, 434430.360554333776236 ], [ 7542422.046949392184615, 434391.021484205499291 ], [ 7542431.399414758197963, 434358.221044548321515 ], [ 7542440.497280194424093, 434324.675899939611554 ], [ 7542452.104524184949696, 434291.270951020997018 ], [ 7542466.143343768082559, 434240.212011840660125 ], [ 7542472.544126590713859, 434189.234150932170451 ], [ 7542496.217811495065689, 434177.780606091953814 ], [ 7542534.06134940776974, 434160.200654062442482 ], [ 7542542.823291223496199, 434142.046643394045532 ], [ 7542558.510146462358534, 434102.769428110215813 ], [ 7542578.138479085639119, 434054.922763060312718 ], [ 7542598.917140866629779, 434039.624591018538922 ], [ 7542629.750006409361959, 434024.81959272781387 ], [ 7542727.490179880522192, 433944.934493451844901 ], [ 7542766.731971515342593, 433884.057155536487699 ], [ 7542790.002253588289022, 433863.650061264634132 ], [ 7542871.370633829385042, 433882.463116823229939 ], [ 7542852.658092794939876, 433932.328182777389884 ], [ 7542821.695406953804195, 434001.162393950391561 ], [ 7542768.304353349842131, 434094.167970631737262 ], [ 7542729.697713066823781, 434165.361627737991512 ], [ 7542700.363520564511418, 434220.719031949993223 ] ] ] } },
{ "type": "Feature", "properties": { "element": "way", "id": 1127378559, "access": null, "disused": null, "leisure": "golf_course", "name": "East Potomac Practice Holes", "note": null, "addr:city": null, "addr:housenumber": null, "addr:postcode": null, "addr:state": null, "addr:street": null, "opening_hours:signed": "no", "phone": null, "website": null, "wikidata": "Q5329186", "gnis:feature_id": null, "opening_hours": null, "operator": null, "operator:short": null, "operator:type": null, "start_date": null, "type": null, "dcgis:acquired": null, "dcgis:alpha_code": null, "dcgis:location": null, "dcgis:name": null, "dcgis:park_code": null, "dcgis:reserve": null, "dcgis:source": null, "dcgis:trans_dc": null, "wikipedia": null, "area_m2": 26384.305661458246, "lat": 38.872836096462336, "lon": -77.024512529012384, "province": "Washington", "gcid": "WA00007" }, "geometry": { "type": "Polygon", "coordinates": [ [ [ 7542700.363520564511418, 434220.719031949993223 ], [ 7542667.647026464343071, 434281.741763280704618 ], [ 7542639.614208854734898, 434329.258432751521468 ], [ 7542597.737990668043494, 434392.820753672160208 ], [ 7542552.256345958448946, 434453.317558389622718 ], [ 7542529.997723849490285, 434477.09720202209428 ], [ 7542463.928377421572804, 434407.768075721804053 ], [ 7542580.138484388589859, 434258.866363201290369 ], [ 7542625.774199219420552, 434190.855724355671555 ], [ 7542700.363520564511418, 434220.719031949993223 ] ] ] } }
]
}
